{
    "links": {
        "self": "http://www.neowsapp.com/rest/v1/neo/3548888?api_key=iIulBulltgU6a56xZRHN4H3l9WmuAYTsLGpBGhQ2"
    },
    "id": "3548888",
    "neo_reference_id": "3548888",
    "name": "(2010 TF55)",
    "designation": "2010 TF55",
    "nasa_jpl_url": "http://ssd.jpl.nasa.gov/sbdb.cgi?sstr=3548888",
    "absolute_magnitude_h": 24.1,
    "estimated_diameter": {
        "kilometers": {
            "estimated_diameter_min": 0.040230458,
            "estimated_diameter_max": 0.0899580388
        },
        "meters": {
            "estimated_diameter_min": 40.2304579834,
            "estimated_diameter_max": 89.9580388169
        },
        "miles": {
            "estimated_diameter_min": 0.0249980399,
            "estimated_diameter_max": 0.0558973165
        },
        "feet": {
            "estimated_diameter_min": 131.9896957704,
            "estimated_diameter_max": 295.1379320721
        }
    },
    "is_potentially_hazardous_asteroid": false,
    "close_approach_data": [
        {
            "close_approach_date": "2010-10-03",
            "close_approach_date_full": "2010-Oct-03 22:53",
            "epoch_date_close_approach": 1286146380000,
            "relative_velocity": {
                "kilometers_per_second": "9.1919342428",
                "kilometers_per_hour": "33090.9632740405",
                "miles_per_hour": "20561.4377076948"
            },
            "miss_distance": {
                "astronomical": "0.1252110498",
                "lunar": "48.7070983722",
                "kilometers": "18731306.350543926",
                "miles": "11639094.0542651388"
            },
            "orbiting_body": "Earth"
        }
    ],
    "orbital_data": {
        "orbit_id": "7",
        "orbit_determination_date": "2017-04-06 08:56:18",
        "first_observation_date": "2010-10-12",
        "last_observation_date": "2010-10-16",
        "data_arc_in_days": 4,
        "observations_used": 21,
        "orbit_uncertainty": "9",
        "minimum_orbit_intersection": ".118363",
        "jupiter_tisserand_invariant": "3.111",
        "epoch_osculation": "2455482.5",
        "eccentricity": ".5757115670381492",
        "semi_major_axis": "2.630028662484067",
        "inclination": "12.95646855198964",
        "ascending_node_longitude": "198.0165140082817",
        "orbital_period": "1557.898464132653",
        "perihelion_distance": "1.115890739850117",
        "perihelion_argument": "172.3648700427538",
        "aphelion_distance": "4.144166585118016",
        "perihelion_time": "2455471.310748386251",
        "mean_anomaly": "2.585618173256413",
        "mean_motion": ".2310805282168547",
        "equinox": "J2000",
        "orbit_class": {
            "orbit_class_type": "AMO",
            "orbit_class_description": "Near-Earth asteroid orbits similar to that of 1221 Amor",
            "orbit_class_range": "1.017 AU < q (perihelion) < 1.3 AU"
        }
    },
    "is_sentry_object": false
}